[{"OBJECT_NAME":"NUSAT-41 (C PAYNE-G)","OBJECT_ID":"2023-084N","EPOCH":"2026-03-09T21:55:54.837696","MEAN_MOTION":15.29680045,"ECCENTRICITY":0.00062175,"INCLINATION":97.5351,"RA_OF_ASC_NODE":204.1011,"ARG_OF_PERICENTER":322.2064,"MEAN_ANOMALY":37.8738,"EPHEMERIS_TYPE":0,"CLASSIFICATION_TYPE":"U","NORAD_CAT_ID":56944,"ELEMENT_SET_NO":999,"REV_AT_EPOCH":15260,"BSTAR":0.00059912824,"MEAN_MOTION_DOT":0.0001718,"MEAN_MOTION_DDOT":0},{"OBJECT_NAME":"STARLINK-31589","OBJECT_ID":"2024-084A","EPOCH":"2026-03-09T22:35:54.031776","MEAN_MOTION":15.27575395,"ECCENTRICITY":5.285e-5,"INCLINATION":42.9979,"RA_OF_ASC_NODE":40.2098,"ARG_OF_PERICENTER":106.1445,"MEAN_ANOMALY":253.9465,"EPHEMERIS_TYPE":0,"CLASSIFICATION_TYPE":"U","NORAD_CAT_ID":59654,"ELEMENT_SET_NO":999,"REV_AT_EPOCH":10443,"BSTAR":4.8923224e-5,"MEAN_MOTION_DOT":1.085e-5,"MEAN_MOTION_DDOT":0}]
